[{"OBJECT_NAME":"OBJECT B","OBJECT_ID":"2024-153B","EPOCH":"2026-03-09T23:15:18.632160","MEAN_MOTION":15.30512917,"ECCENTRICITY":0.00113423,"INCLINATION":97.6622,"RA_OF_ASC_NODE":204.9195,"ARG_OF_PERICENTER":149.8438,"MEAN_ANOMALY":210.3457,"EPHEMERIS_TYPE":0,"CLASSIFICATION_TYPE":"U","NORAD_CAT_ID":60746,"ELEMENT_SET_NO":999,"REV_AT_EPOCH":8476,"BSTAR":0.00066193599,"MEAN_MOTION_DOT":0.00019515,"MEAN_MOTION_DDOT":0},{"OBJECT_NAME":"STARLINK-34349","OBJECT_ID":"2025-117N","EPOCH":"2026-03-09T08:30:39.643200","MEAN_MOTION":15.30200792,"ECCENTRICITY":0.00013905,"INCLINATION":53.16,"RA_OF_ASC_NODE":41.2132,"ARG_OF_PERICENTER":100.631,"MEAN_ANOMALY":259.4847,"EPHEMERIS_TYPE":0,"CLASSIFICATION_TYPE":"U","NORAD_CAT_ID":64215,"ELEMENT_SET_NO":999,"REV_AT_EPOCH":4447,"BSTAR":0.00093324678,"MEAN_MOTION_DOT":0.00027383,"MEAN_MOTION_DDOT":0}]
